ONEWEB-0055             
1 45443U 20020V   21032.00001157  .00029974  00000-0  84284-1 0  9994
2 45443  87.8809  51.1345 0001927  95.4997 336.4292 13.11400808  1728
ONEWEB-0093             
1 45444U 20020W   21032.00001157  .00031669  00000-0  89035-1 0  9998
2 45444  87.8851  51.1844 0001670  87.4141 168.1910 13.11400761  1711
ONEWEB-0029             
1 45445U 20020X   21032.00001157  .00030311  00000-0  85231-1 0  9996
2 45445  87.8836  51.1653 0001841  92.5586 346.7038 13.11398466  1727
ONEWEB-0068             
1 45446U 20020Y   21032.00001157  .00030434  00000-0  85560-1 0  9998
2 45446  87.8852  51.1842 0001958 113.2698 171.6739 13.11410539  1718
ONEWEB-0046             
1 45447U 20020Z   21032.00001157  .00029856  00000-0  83938-1 0  9992
2 45447  87.8853  51.1869 0001590  97.2284 202.4578 13.11411960  1716
ONEWEB-0063             
1 45448U 20020AA  21032.00001157  .00030962  00000-0  87048-1 0  9999
2 45448  87.8829  51.2066 0001178 109.2363 344.7488 13.11406223  1721
ONEWEB-0019             
1 45449U 20020AB  21032.00001157  .00030710  00000-0  86337-1 0  9991
2 45449  87.8857  51.1566 0001835  90.8126 186.7492 13.11408288  1710
ONEWEB-0094             
1 45450U 20020AC  21032.00001157  .00019253  00000-0  19532-2 0  9996
2 45450  87.5758  39.5320 0024882 234.6404  66.1081 14.90549497  1767
ONEWEB-0087             
1 45451U 20020AD  21032.00001157  .00029784  00000-0  83752-1 0  9991
2 45451  87.8841  51.1838 0001839  92.7538 331.8259 13.11398836  1722
ONEWEB-0082             
1 45452U 20020AE  21032.00001157  .00029491  00000-0  82930-1 0  9994
2 45452  87.8823  51.1586 0001913 101.7698 315.4847 13.11400589  1724
ONEWEB-0050             
1 45453U 20020AF  21032.00001157  .00015362  00000-0  13992-2 0  9990
2 45453  87.5403  38.4077 0024030 229.5379 137.6991 14.94846623  1784
ONEWEB-0034             
1 45454U 20020AG  21032.00001157  .00028574  00000-0  80345-1 0  9995
2 45454  87.8843  51.1794 0001458  97.3622 261.0139 13.11412302  1715
ONEWEB-0060             
1 45455U 20020AH  21032.00001157  .00028952  00000-0  81408-1 0  9997
2 45455  87.8851  51.1699 0001669  96.1180 232.9480 13.11409716  1697
ONEWEB-0086             
1 45456U 20020AJ  21032.00001157  .00031342  00000-0  88104-1 0  9995
2 45456  87.8852  51.1689 0001608  96.7394 166.2056 13.11412261  1714
ONEWEB-0088             
1 45457U 20020AK  21032.00001157  .00028648  00000-0  80554-1 0  9992
2 45457  87.8841  51.2058 0001514  98.2320 252.8784 13.11409250  1710
ONEWEB-0102             
1 47258U 20100A   21031.91668981 -.01364430  00000-0 -23085+0 0  9994
2 47258  87.4901  24.4009 0011540 113.4031 256.5482 14.72691416  1767
ONEWEB-0109             
1 47259U 20100B   21031.91668981 -.01378674  00000-0 -33560+0 0  9999
2 47259  87.3335  24.4188 0010976 112.9400  15.8566 14.56500696  1751
ONEWEB-0110             
1 47260U 20100C   21031.91668981 -.01380028  00000-0 -24143+0 0  9994
2 47260  87.4770  24.3914 0011122 115.0720 176.5429 14.71285076  1758
ONEWEB-0111             
1 47261U 20100D   21031.91668981 -.01409852  00000-0 -38992+0 0  9999
2 47261  87.2874  24.4258 0011428 115.1005  98.7080 14.50056418  1751
ONEWEB-0114             
1 47262U 20100E   21031.91668981 -.01417034  00000-0 -39266+0 0  9996
2 47262  87.2906  24.3818 0011867 103.3314  46.6292 14.49977617  1756
ONEWEB-0117             
1 47263U 20100F   21031.91668981 -.01412418  00000-0 -36768+0 0  9992
2 47263  87.3125  24.4013 0012859 120.9012  72.8930 14.52891137  1757
ONEWEB-0118             
1 47264U 20100G   21031.91668981 -.01378845  00000-0 -22200+0 0  9994
2 47264  87.5089  24.3745 0014582 107.7773 162.3479 14.74818324  1767
ONEWEB-0119             
1 47265U 20100H   21031.91668981 -.01377833  00000-0 -24166+0 0  9994
2 47265  87.4739  24.3826 0014979 106.9234  23.4137 14.71118878  1764
ONEWEB-0120             
1 47266U 20100J   21031.91668981 -.01384669  00000-0 -23323+0 0  9994
2 47266  87.4928  24.3875 0011845 116.1724 318.7173 14.72929078  1757
ONEWEB-0121             
1 47267U 20100K   21031.91668981 -.01385999  00000-0 -35800+0 0  9995
2 47267  87.3087  24.4123 0013827 118.7461 149.5825 14.53739793  1754
ONEWEB-0122             
1 47268U 20100L   21031.91668981 -.01416870  00000-0 -39962+0 0  9992
2 47268  87.2937  24.4315 0010968 110.0562 335.0901 14.49149904  1752
ONEWEB-0123             
1 47269U 20100M   21031.91668981 -.01407256  00000-0 -25525+0 0  9991
2 47269  87.4620  24.3976 0010732 109.9580  39.6584 14.69781466  1764
ONEWEB-0124             
1 47270U 20100N   21031.91668981 -.01378564  00000-0 -33298+0 0  9998
2 47270  87.3824  24.5211 0011545 101.8129 283.1185 14.56851109  1769
ONEWEB-0125             
1 47271U 20100P   21031.91668981 -.01391736  00000-0 -29213+0 0  9997
2 47271  87.4111  24.4071 0011209 103.3082 331.6693 14.63268451  1768
ONEWEB-0126             
1 47272U 20100Q   21031.91668981 -.01399806  00000-0 -23767+0 0  9992
2 47272  87.4995  24.3988 0012220 100.9206 210.4818 14.72615915  1764
ONEWEB-0127             
1 47273U 20100R   21031.91668981 -.01379842  00000-0 -22063+0 0  9999
2 47273  87.5041  24.3858 0014186 111.6569 128.1732 14.75121944  1765
ONEWEB-0128             
1 47274U 20100S   21031.91668981 -.01384578  00000-0 -20461+0 0  9992
2 47274  87.5196  24.3233 0015084  93.8989 150.7495 14.78464341  1760
ONEWEB-0129             
1 47275U 20100T   21031.91668981 -.01404910  00000-0 -29051+0 0  9990
2 47275  87.4288  24.4377 0013568 116.5680  23.4842 14.63944111  1762
ONEWEB-0130             
1 47276U 20100U   21031.91668981 -.01391595  00000-0 -26470+0 0  9997
2 47276  87.4602  24.4575 0011513 101.6843 203.1230 14.67646336  1756
ONEWEB-0131             
1 47277U 20100V   21031.91668981 -.01386722  00000-0 -25062+0 0  9990
2 47277  87.4698  24.3868 0010304 108.0135  75.6447 14.69893728  1740
ONEWEB-0132             
1 47278U 20100W   21031.91668981 -.01403992  00000-0 -32850+0 0  9993
2 47278  87.3681  24.4042 0010722 119.8708 127.9406 14.58386933  1757
ONEWEB-0133             
1 47279U 20100X   21031.91668981 -.00992215  00000-0 -15556+0 0  9998
2 47279  87.5245  24.3983 0015271 108.3651 254.6158 14.75930278  1762
ONEWEB-0134             
1 47280U 20100Y   21031.91668981 -.01391208  00000-0 -23189+0 0  9997
2 47280  87.5042  24.3992 0014241 113.3374  30.1197 14.73364588  1766
ONEWEB-0135             
1 47281U 20100Z   21031.91668981 -.01395255  00000-0 -21195+0 0  9999
2 47281  87.5209  24.3395 0015405  94.9146  81.5954 14.77320125  1767
ONEWEB-0136             
1 47282U 20100AA  21031.91668981 -.01403074  00000-0 -26313+0 0  9996
2 47282  87.4659  24.4068 0010253 102.6964 277.4852 14.68312953  1768
ONEWEB-0137             
1 47283U 20100AB  21031.91668981 -.01396453  00000-0 -34166+0 0  9994
2 47283  87.3499  24.4300 0013595 103.0938 106.2307 14.56282236  1746
ONEWEB-0138             
1 47284U 20100AC  21031.91668981 -.01391761  00000-0 -35083+0 0  9991
2 47284  87.3363  24.3652 0013918 112.6261 311.3431 14.54886101  1768
ONEWEB-0139             
1 47285U 20100AD  21031.91668981 -.01383291  00000-0 -21718+0 0  9991
2 47285  87.5202  24.3903 0013560  93.7401 269.4494 14.75917773  1765
ONEWEB-0140             
1 47286U 20100AE  21031.91668981 -.01374546  00000-0 -28017+0 0  9994
2 47286  87.4166  24.3883 0012394 118.8607 352.3074 14.64525714  1766
ONEWEB-0141             
1 47287U 20100AF  21031.91668981 -.01334093  00000-0 -24160+0 0  9993
2 47287  87.4104  24.3688 0014937 103.1733  52.1708 14.69617864  1766
ONEWEB-0142             
1 47288U 20100AG  21031.91668981 -.01390682  00000-0 -25392+0 0  9998
2 47288  87.4650  24.4238 0010187 105.3089 358.1183 14.69457263  1767
ONEWEB-0143             
1 47289U 20100AH  21031.91668981 -.01399817  00000-0 -30610+0 0  9997
2 47289  87.3923  24.4017 0014786 119.6613  99.4129 14.61400960  1753
ONEWEB-0144             
1 47290U 20100AJ  21031.91668981 -.01382244  00000-0 -31082+0 0  9999
2 47290  87.3820  24.3959 0011507 119.8592 310.1109 14.60131521  1766
ONEWEB-0145             
1 47291U 20100AK  21031.91668981 -.01327668  00000-0 -17998+0 0  9999
2 47291  87.5150  24.3170 0015740  94.7470 112.4612 14.82460331  1769
ONEWEB-0146             
1 47292U 20100AL  21031.91668981 -.01374911  00000-0 -26805+0 0  9990
2 47292  87.4278  24.4045 0014903 111.1294 328.9964 14.66472136  1762
ONEWEB-0147             
1 47293U 20100AM  21031.91668981 -.01412813  00000-0 -31911+0 0  9999
2 47293  87.3979  24.3993 0012477 101.7758 194.0663 14.59997063  1755
